[{"OBJECT_NAME":"TIANYAN 02","OBJECT_ID":"2019-093D","EPOCH":"2026-03-09T23:02:03.462720","MEAN_MOTION":15.03854369,"ECCENTRICITY":0.0013821,"INCLINATION":97.7892,"RA_OF_ASC_NODE":162.9238,"ARG_OF_PERICENTER":3.6432,"MEAN_ANOMALY":356.4891,"EPHEMERIS_TYPE":0,"CLASSIFICATION_TYPE":"U","NORAD_CAT_ID":44882,"ELEMENT_SET_NO":999,"REV_AT_EPOCH":33769,"BSTAR":0.0006063204,"MEAN_MOTION_DOT":8.303e-5,"MEAN_MOTION_DDOT":0},{"OBJECT_NAME":"STARLINK-5937","OBJECT_ID":"2023-083AY","EPOCH":"2026-03-09T22:52:08.997024","MEAN_MOTION":15.0333741,"ECCENTRICITY":0.00020736,"INCLINATION":43.0002,"RA_OF_ASC_NODE":67.0252,"ARG_OF_PERICENTER":253.4788,"MEAN_ANOMALY":106.5827,"EPHEMERIS_TYPE":0,"CLASSIFICATION_TYPE":"U","NORAD_CAT_ID":56922,"ELEMENT_SET_NO":999,"REV_AT_EPOCH":15186,"BSTAR":0.0082673876,"MEAN_MOTION_DOT":0.00115779,"MEAN_MOTION_DDOT":0}]
